GSAT0221 (GALILEO 25)   
1 43564U 18060A   22263.49487435 -.00000089  00000+0  00000+0 0  9992
2 43564  57.2068  18.6174 0002984 247.5189 112.4541  1.70476257 25899
GSAT0222 (GALILEO 26)   
1 43565U 18060B   22262.54157899 -.00000092  00000+0  00000+0 0  9990
2 43565  57.2087  18.6437 0002299 254.3337 105.6456  1.70476269 25918
GSAT0219 (GALILEO 23)   
1 43566U 18060C   22262.76212156 -.00000091  00000+0  00000+0 0  9992
2 43566  57.2092  18.6398 0001968 250.0540 109.9296  1.70476262 25891
GSAT0220 (GALILEO 24)   
1 43567U 18060D   22262.39571918 -.00000092  00000+0  00000+0 0  9997
2 43567  57.2093  18.6498 0002380 246.4434 113.5364  1.70476237 25871
BEIDOU-3 M13            
1 43622U 18072A   22262.71843257  .00000011  00000+0  00000+0 0  9996
2 43622  55.5330 108.1874 0004747 292.7963 244.8474  1.86231777 27205
BEIDOU-3 M14            
1 43623U 18072B   22262.78479264  .00000012  00000+0  00000+0 0  9998
2 43623  55.5357 108.1774 0003232 336.1975 336.1772  1.86231786 27204
GPS BIII-1              
1 43873U 18109A   22262.78705769 -.00000021  00000+0  00000+0 0  9999
2 43873  55.1038 146.1717 0020362 189.1622  87.5461  2.00554463 27669
METEOR-M2 2             
1 44387U 19038A   22263.51975906  .00000022  00000+0  28804-4 0  9993
2 44387  98.7324 223.5786 0001847  36.3279 323.8016 14.23720229166934
GPS BIII-2              
1 44506U 19056A   22262.77261166 -.00000088  00000+0  00000+0 0  9995
2 44506  55.7207  25.3022 0028317 180.7414 345.5403  2.00558566 22664
BEIDOU-3 M23            
1 44542U 19061A   22262.69916297  .00000022  00000+0  00000+0 0  9991
2 44542  54.5625 228.9112 0008857 331.4099  28.5199  1.86231581 20348
BEIDOU-3 M24            
1 44543U 19061B   22262.59082060  .00000023  00000+0  00000+0 0  9994
2 44543  54.5604 228.8845 0006485 312.3282 246.3930  1.86231825 20338
BEIDOU-3 M21            
1 44793U 19078A   22263.60932911 -.00000103  00000+0  10000-3 0  9996
2 44793  54.9359 347.3421 0005061  15.6603 338.9231  1.86232278 19212
BEIDOU-3 M22            
1 44794U 19078B   22262.63068517 -.00000109  00000+0  00000+0 0  9992
2 44794  54.9106 347.3662 0002890   6.9073 323.3679  1.86232772 19191
ELEKTRO-L 3             
1 44903U 19095A   22263.44420639 -.00000103  00000+0  00000+0 0  9994
2 44903   0.0460   3.7525 0001490 179.7410  51.8055  1.00272369 10013
GPS BIII-3              
1 45854U 20041A   22262.53711118  .00000003  00000+0  00000+0 0  9995
2 45854  55.5952  82.5780 0026417 177.4203 115.8768  2.00569962 16623
GPS BIII-4              
1 46826U 20078A   22262.85674869  .00000037  00000+0  00000+0 0  9998
2 46826  54.5096 266.2623 0023412 191.5936 309.6312  2.00565299 14108
GSAT0223 (GALILEO 27)   
1 49809U 21116A   22262.87865954 -.00000091  00000+0  00000+0 0  9996
2 49809  57.2011  18.5348 0003404 176.7754 209.6608  1.70476458  4899
GSAT0224 (GALILEO 28)   
1 49810U 21116B   22262.06600657 -.00000093  00000+0  00000+0 0  9998
2 49810  57.2022  18.5547 0002953 167.9949 192.1723  1.70476409  4902
